start=new Date('2022-10-17T00:00:00.000Z').valueOf();
sats=[{"ELEMENT_SET_NO":"999","NORAD_CAT_ID":"49742","TLE_LINE1":"1 49742U 21115U   22289.81553758 -.00003435  00000-0 -19789-3 0  9995","FILE":"3617955","SITE":"AFETR","SEMIMAJOR_AXIS":"6917.916","CLASSIFICATION_TYPE":"U","APOAPSIS":"541.308","ECCENTRICITY":"0.00022070","MEAN_ELEMENT_THEORY":"SGP4","CENTER_NAME":"EARTH","COUNTRY_CODE":"US","REV_AT_EPOCH":"4835","REF_FRAME":"TEME","RCS_SIZE":"LARGE","MEAN_MOTION_DDOT":"0.0000000000000","MEAN_ANOMALY":"328.4364","TIME_SYSTEM":"UTC","OBJECT_ID":"2021-115U","INCLINATION":"53.2164","PERIOD":"95.438","OBJECT_NAME":"STARLINK-3202","GP_ID":"215348716","RA_OF_ASC_NODE":"315.1349","EPOCH":"2022-10-16T19:34:22.446912","ARG_OF_PERICENTER":"31.6761","BSTAR":"-0.00019789000000","TLE_LINE2":"2 49742  53.2164 315.1349 0002207  31.6761 328.4364 15.08828305 48350","EPHEMERIS_TYPE":"0","OBJECT_TYPE":"PAYLOAD","PERIAPSIS":"538.254","MEAN_MOTION":"15.08828305","MEAN_MOTION_DOT":"-0.00003435","LAUNCH_DATE":"2021-12-02","DECAY_DATE":null},{"SEMIMAJOR_AXIS":"6917.864","SITE":"AFETR","CLASSIFICATION_TYPE":"U","ELEMENT_SET_NO":"999","NORAD_CAT_ID":"49743","FILE":"3617955","TLE_LINE1":"1 49743U 21115V   22289.80449631 -.00000868  00000-0 -36425-4 0  9993","MEAN_ELEMENT_THEORY":"SGP4","ECCENTRICITY":"0.00024580","APOAPSIS":"541.430","COUNTRY_CODE":"US","REV_AT_EPOCH":"4835","CENTER_NAME":"EARTH","TIME_SYSTEM":"UTC","OBJECT_ID":"2021-115V","REF_FRAME":"TEME","RCS_SIZE":"LARGE","MEAN_ANOMALY":"323.6884","MEAN_MOTION_DDOT":"0.0000000000000","PERIOD":"95.437","OBJECT_NAME":"STARLINK-3239","GP_ID":"215348966","INCLINATION":"53.2165","EPOCH":"2022-10-16T19:18:28.481184","BSTAR":"-0.00003642500000","ARG_OF_PERICENTER":"36.4275","RA_OF_ASC_NODE":"315.1853","EPHEMERIS_TYPE":"0","PERIAPSIS":"538.029","OBJECT_TYPE":"PAYLOAD","TLE_LINE2":"2 49743  53.2165 315.1853 0002458  36.4275 323.6884 15.08845318 48350","LAUNCH_DATE":"2021-12-02","DECAY_DATE":null,"MEAN_MOTION":"15.08845318","MEAN_MOTION_DOT":"-0.00000868"},{"OBJECT_NAME":"STARLINK-3231","GP_ID":"215304562","PERIOD":"95.437","INCLINATION":"53.2168","ARG_OF_PERICENTER":"36.5542","BSTAR":"0.00000815980000","EPOCH":"2022-10-16T11:48:02.166336","RA_OF_ASC_NODE":"316.5836","OBJECT_TYPE":"PAYLOAD","PERIAPSIS":"538.202","EPHEMERIS_TYPE":"0","TLE_LINE2":"2 49744  53.2168 316.5836 0002219  36.5542 323.5602 15.08842748 48309","DECAY_DATE":null,"LAUNCH_DATE":"2021-12-02","MEAN_MOTION_DOT":"-0.00000158","MEAN_MOTION":"15.08842748","CLASSIFICATION_TYPE":"U","SITE":"AFETR","SEMIMAJOR_AXIS":"6917.872","TLE_LINE1":"1 49744U 21115W   22289.49169174 -.00000158  00000-0  81598-5 0  9993","FILE":"3617121","ELEMENT_SET_NO":"999","NORAD_CAT_ID":"49744","MEAN_ELEMENT_THEORY":"SGP4","ECCENTRICITY":"0.00022190","APOAPSIS":"541.272","REV_AT_EPOCH":"4830","COUNTRY_CODE":"US","CENTER_NAME":"EARTH","OBJECT_ID":"2021-115W","TIME_SYSTEM":"UTC","MEAN_MOTION_DDOT":"0.0000000000000","MEAN_ANOMALY":"323.5602","RCS_SIZE":"LARGE","REF_FRAME":"TEME"},{"MEAN_MOTION_DDOT":"0.0000000000000","MEAN_ANOMALY":"317.1297","REF_FRAME":"TEME","RCS_SIZE":"LARGE","OBJECT_ID":"2021-115X","TIME_SYSTEM":"UTC","CENTER_NAME":"EARTH","REV_AT_EPOCH":"4835","COUNTRY_CODE":"US","ECCENTRICITY":"0.00021300","APOAPSIS":"541.220","MEAN_ELEMENT_THEORY":"SGP4","TLE_LINE1":"1 49745U 21115X   22289.81185703 -.00001181  00000-0 -56085-4 0  9996","FILE":"3617955","ELEMENT_SET_NO":"999","NORAD_CAT_ID":"49745","CLASSIFICATION_TYPE":"U","SITE":"AFETR","SEMIMAJOR_AXIS":"6917.881","MEAN_MOTION_DOT":"-0.00001181","MEAN_MOTION":"15.08839717","DECAY_DATE":null,"LAUNCH_DATE":"2021-12-02","TLE_LINE2":"2 49745  53.2189 315.1574 0002130  42.9861 317.1297 15.08839717 48350","OBJECT_TYPE":"PAYLOAD","PERIAPSIS":"538.273","EPHEMERIS_TYPE":"0","RA_OF_ASC_NODE":"315.1574","BSTAR":"-0.00005608500000","ARG_OF_PERICENTER":"42.9861","EPOCH":"2022-10-16T19:29:04.447392","INCLINATION":"53.2189","GP_ID":"215347965","OBJECT_NAME":"STARLINK-3241","PERIOD":"95.438"},{"INCLINATION":"53.2164","PERIOD":"95.439","OBJECT_NAME":"STARLINK-3233","GP_ID":"215348217","RA_OF_ASC_NODE":"316.2453","EPOCH":"2022-10-16T13:34:01.481952","BSTAR":"-0.00008261300000","ARG_OF_PERICENTER":"26.9921","TLE_LINE2":"2 49746  53.2164 316.2453 0001988  26.9921 333.1174 15.08820846 48312","EPHEMERIS_TYPE":"0","PERIAPSIS":"538.429","OBJECT_TYPE":"PAYLOAD","MEAN_MOTION":"15.08820846","MEAN_MOTION_DOT":"-0.00001602","LAUNCH_DATE":"2021-12-02","DECAY_DATE":null,"ELEMENT_SET_NO":"999","NORAD_CAT_ID":"49746","FILE":"3617955","TLE_LINE1":"1 49746U 21115Y   22289.56529493 -.00001602  00000-0 -82613-4 0  9991","SITE":"AFETR","SEMIMAJOR_AXIS":"6917.939","CLASSIFICATION_TYPE":"U","APOAPSIS":"541.179","ECCENTRICITY":"0.00019880","MEAN_ELEMENT_THEORY":"SGP4","CENTER_NAME":"EARTH","COUNTRY_CODE":"US","REV_AT_EPOCH":"4831","RCS_SIZE":"MEDIUM","REF_FRAME":"TEME","MEAN_ANOMALY":"333.1174","MEAN_MOTION_DDOT":"0.0000000000000","TIME_SYSTEM":"UTC","OBJECT_ID":"2021-115Y"},{"TLE_LINE2":"2 49747  53.2176 316.3006 0002523  36.7083 323.4082 15.08830918 48316","EPHEMERIS_TYPE":"0","PERIAPSIS":"538.028","OBJECT_TYPE":"PAYLOAD","MEAN_MOTION":"15.08830918","MEAN_MOTION_DOT":"-0.00000586","LAUNCH_DATE":"2021-12-02","DECAY_DATE":null,"INCLINATION":"53.2176","PERIOD":"95.438","OBJECT_NAME":"STARLINK-3247","GP_ID":"215348467","RA_OF_ASC_NODE":"316.3006","EPOCH":"2022-10-16T13:18:08.660160","BSTAR":"-0.00001870700000","ARG_OF_PERICENTER":"36.7083","CENTER_NAME":"EARTH","COUNTRY_CODE":"US","REV_AT_EPOCH":"4831","RCS_SIZE":"LARGE","REF_FRAME":"TEME","MEAN_ANOMALY":"323.4082","MEAN_MOTION_DDOT":"0.0000000000000","TIME_SYSTEM":"UTC","OBJECT_ID":"2021-115Z","NORAD_CAT_ID":"49747","ELEMENT_SET_NO":"999","FILE":"3617955","TLE_LINE1":"1 49747U 21115Z   22289.55426690 -.00000586  00000-0 -18707-4 0  9999","SITE":"AFETR","SEMIMAJOR_AXIS":"6917.908","CLASSIFICATION_TYPE":"U","ECCENTRICITY":"0.00025230","APOAPSIS":"541.519","MEAN_ELEMENT_THEORY":"SGP4"},{"INCLINATION":"53.2165","GP_ID":"215276776","OBJECT_NAME":"STARLINK-3248","PERIOD":"95.438","RA_OF_ASC_NODE":"316.5368","BSTAR":"0.00002425700000","ARG_OF_PERICENTER":"37.7943","EPOCH":"2022-10-16T12:09:14.807232","TLE_LINE2":"2 49748  53.2165 316.5368 0002246  37.7943 322.3207 15.08834519 49427","PERIAPSIS":"538.208","OBJECT_TYPE":"PAYLOAD","EPHEMERIS_TYPE":"0","MEAN_MOTION_DOT":"0.00000098","MEAN_MOTION":"15.08834519","DECAY_DATE":null,"LAUNCH_DATE":"2021-12-02","TLE_LINE1":"1 49748U 21115AA  22289.50642138  .00000098  00000-0  24257-4 0  9995","FILE":"3616945","NORAD_CAT_ID":"49748","ELEMENT_SET_NO":"999","CLASSIFICATION_TYPE":"U","SEMIMAJOR_AXIS":"6917.897","SITE":"AFETR","ECCENTRICITY":"0.00022460","APOAPSIS":"541.316","MEAN_ELEMENT_THEORY":"SGP4","CENTER_NAME":"EARTH","REV_AT_EPOCH":"4942","COUNTRY_CODE":"US","MEAN_MOTION_DDOT":"0.0000000000000","MEAN_ANOMALY":"322.3207","RCS_SIZE":"LARGE","REF_FRAME":"TEME","OBJECT_ID":"2021-115AA","TIME_SYSTEM":"UTC"},{"CENTER_NAME":"EARTH","REV_AT_EPOCH":"4831","COUNTRY_CODE":"US","MEAN_MOTION_DDOT":"0.0000000000000","MEAN_ANOMALY":"322.0850","RCS_SIZE":"LARGE","REF_FRAME":"TEME","OBJECT_ID":"2021-115AB","TIME_SYSTEM":"UTC","TLE_LINE1":"1 49749U 21115AB  22289.56161597 -.00002858  00000-0 -16148-3 0  9994","FILE":"3617955","NORAD_CAT_ID":"49749","ELEMENT_SET_NO":"999","CLASSIFICATION_TYPE":"U","SEMIMAJOR_AXIS":"6917.887","SITE":"AFETR","APOAPSIS":"541.616","ECCENTRICITY":"0.00026950","MEAN_ELEMENT_THEORY":"SGP4","TLE_LINE2":"2 49749  53.2174 316.2711 0002695  38.0332 322.0850 15.08837969 48311","OBJECT_TYPE":"PAYLOAD","PERIAPSIS":"537.887","EPHEMERIS_TYPE":"0","MEAN_MOTION_DOT":"-0.00002858","MEAN_MOTION":"15.08837969","DECAY_DATE":null,"LAUNCH_DATE":"2021-12-02","INCLINATION":"53.2174","OBJECT_NAME":"STARLINK-3250","GP_ID":"215347466","PERIOD":"95.438","RA_OF_ASC_NODE":"316.2711","BSTAR":"-0.00016148000000","ARG_OF_PERICENTER":"38.0332","EPOCH":"2022-10-16T13:28:43.619808"},{"DECAY_DATE":null,"LAUNCH_DATE":"2021-12-02","MEAN_MOTION_DOT":"0.00000485","MEAN_MOTION":"15.08840394","OBJECT_TYPE":"PAYLOAD","PERIAPSIS":"538.421","EPHEMERIS_TYPE":"0","TLE_LINE2":"2 49750  53.2170 318.2789 0001913  34.5510 325.5606 15.08840394 48253","BSTAR":"0.00004859300000","ARG_OF_PERICENTER":"34.5510","EPOCH":"2022-10-16T02:47:31.541856","RA_OF_ASC_NODE":"318.2789","OBJECT_NAME":"STARLINK-3236","GP_ID":"215303561","PERIOD":"95.438","INCLINATION":"53.2170","OBJECT_ID":"2021-115AC","TIME_SYSTEM":"UTC","MEAN_ANOMALY":"325.5606","MEAN_MOTION_DDOT":"0.0000000000000","REF_FRAME":"TEME","RCS_SIZE":"LARGE","REV_AT_EPOCH":"4825","COUNTRY_CODE":"US","CENTER_NAME":"EARTH","MEAN_ELEMENT_THEORY":"SGP4","ECCENTRICITY":"0.00019130","APOAPSIS":"541.068","CLASSIFICATION_TYPE":"U","SEMIMAJOR_AXIS":"6917.879","SITE":"AFETR","FILE":"3617121","TLE_LINE1":"1 49750U 21115AC  22289.11633729  .00000485  00000-0  48593-4 0  9990","ELEMENT_SET_NO":"999","NORAD_CAT_ID":"49750"},{"CENTER_NAME":"EARTH","COUNTRY_CODE":"US","REV_AT_EPOCH":"4835","RCS_SIZE":"LARGE","REF_FRAME":"TEME","MEAN_ANOMALY":"333.2664","MEAN_MOTION_DDOT":"0.0000000000000","TIME_SYSTEM":"UTC","OBJECT_ID":"2021-115AD","ELEMENT_SET_NO":"999","NORAD_CAT_ID":"49751","FILE":"3617955","TLE_LINE1":"1 49751U 21115AD  22289.76769848 -.00002385  00000-0 -13181-3 0  9991","SITE":"AFETR","SEMIMAJOR_AXIS":"6917.916","CLASSIFICATION_TYPE":"U","APOAPSIS":"541.249","ECCENTRICITY":"0.00021220","MEAN_ELEMENT_THEORY":"SGP4","TLE_LINE2":"2 49751  53.2159 315.3587 0002122  26.8438 333.2664 15.08828400 48356","EPHEMERIS_TYPE":"0","OBJECT_TYPE":"PAYLOAD","PERIAPSIS":"538.313","MEAN_MOTION":"15.08828400","MEAN_MOTION_DOT":"-0.00002385","LAUNCH_DATE":"2021-12-02","DECAY_DATE":null,"INCLINATION":"53.2159","PERIOD":"95.438","GP_ID":"215348967","OBJECT_NAME":"STARLINK-3229","RA_OF_ASC_NODE":"315.3587","EPOCH":"2022-10-16T18:25:29.148672","BSTAR":"-0.00013181000000","ARG_OF_PERICENTER":"26.8438"}];
